[{"OBJECT_NAME":"COSMOS 2579","OBJECT_ID":"2024-197A","EPOCH":"2026-03-09T23:06:38.118816","MEAN_MOTION":15.2412329,"ECCENTRICITY":0.00026117,"INCLINATION":97.557,"RA_OF_ASC_NODE":352.0823,"ARG_OF_PERICENTER":56.3903,"MEAN_ANOMALY":303.7583,"EPHEMERIS_TYPE":0,"CLASSIFICATION_TYPE":"U","NORAD_CAT_ID":61730,"ELEMENT_SET_NO":999,"REV_AT_EPOCH":7535,"BSTAR":0.00021686366,"MEAN_MOTION_DOT":5.199e-5,"MEAN_MOTION_DDOT":0},{"OBJECT_NAME":"DCS-1","OBJECT_ID":"2025-313R","EPOCH":"2026-03-09T22:34:45.868224","MEAN_MOTION":15.21562848,"ECCENTRICITY":0.00145796,"INCLINATION":97.4021,"RA_OF_ASC_NODE":145.2125,"ARG_OF_PERICENTER":357.8679,"MEAN_ANOMALY":2.2492,"EPHEMERIS_TYPE":0,"CLASSIFICATION_TYPE":"U","NORAD_CAT_ID":67263,"ELEMENT_SET_NO":999,"REV_AT_EPOCH":1085,"BSTAR":0.0005215367,"MEAN_MOTION_DOT":0.00011729,"MEAN_MOTION_DDOT":0}]
